STARLINK-1209
1 25206C 20012AE  21325.11670928 -.00003511  00000-0 -23520-3 0  3259
2 25206  53.0537 212.7170 0001978  73.1657 331.3854 15.06409247    12
